{"type": "FeatureCollection", "features": [{"type": "Feature", "properties": {"norad_id": 24946, "name": "IRIDIUM 33", "group": "iridium-33-debris", "lat": 23.425130768047868, "lon": 69.12922526248617, "alt_km": 779.5765964985967, "timestamp": "2025-12-14T07:33:19.862986+00:00", "meta": {"OBJECT_NAME": "IRIDIUM 33", "OBJECT_ID": "1997-051C", "EPOCH": "2025-12-13T16:23:05.671392", "MEAN_MOTION": 14.35038386, "ECCENTRICITY": 0.00071379, "INCLINATION": 86.3869, "RA_OF_ASC_NODE": 67.8258, "ARG_OF_PERICENTER": 196.9578, "MEAN_ANOMALY": 163.138, "EPHEMERIS_TYPE": 0, "CLASSIFICATION_TYPE": "U", "NORAD_CAT_ID": 24946, "ELEMENT_SET_NO": 999, "REV_AT_EPOCH": 47848, "BSTAR": 0.00016842772, "MEAN_MOTION_DOT": 4.99e-06, "MEAN_MOTION_DDOT": 0}, "tle": {"line1": "1 24946U 97051C   25347.68270453  .00000499  00000+0  16843-3 0  9999", "line2": "2 24946  86.3869  67.8258 0007137 196.9578 163.1380 14.35038386478480"}}, "geometry": {"type": "Point", "coordinates": [69.12922526248617, 23.425130768047868]}}, {"type": "Feature", "properties": {"norad_id": 33773, "name": "IRIDIUM 33 DEB", "group": "iridium-33-debris", "lat": 26.845878660082633, "lon": 61.74765012947635, "alt_km": 750.5030909991874, "timestamp": "2025-12-14T07:33:19.863031+00:00", "meta": {"OBJECT_NAME": "IRIDIUM 33 DEB", "OBJECT_ID": "1997-051L", "EPOCH": "2025-12-13T16:27:19.396224", "MEAN_MOTION": 14.43259986, "ECCENTRICITY": 0.00125418, "INCLINATION": 86.4008, "RA_OF_ASC_NODE": 60.1886, "ARG_OF_PERICENTER": 143.6419, "MEAN_ANOMALY": 216.5636, "EPHEMERIS_TYPE": 0, "CLASSIFICATION_TYPE": "U", "NORAD_CAT_ID": 33773, "ELEMENT_SET_NO": 999, "REV_AT_EPOCH": 88361, "BSTAR": 0.0004498521, "MEAN_MOTION_DOT": 1.534e-05, "MEAN_MOTION_DDOT": 0}, "tle": {"line1": "1 33773U 97051L   25347.68564116  .00001534  00000+0  44985-3 0  9998", "line2": "2 33773  86.4008  60.1886 0012541 143.6419 216.5636 14.43259986883617"}}, "geometry": {"type": "Point", "coordinates": [61.74765012947635, 26.845878660082633]}}, {"type": "Feature", "properties": {"norad_id": 33775, "name": "IRIDIUM 33 DEB", "group": "iridium-33-debris", "lat": 78.97884620886474, "lon": -150.17564126156248, "alt_km": 739.6751940853765, "timestamp": "2025-12-14T07:33:19.863047+00:00", "meta": {"OBJECT_NAME": "IRIDIUM 33 DEB", "OBJECT_ID": "1997-051N", "EPOCH": "2025-12-13T16:41:11.169024", "MEAN_MOTION": 14.41471207, "ECCENTRICITY": 0.00143873, "INCLINATION": 86.3637, "RA_OF_ASC_NODE": 49.1458, "ARG_OF_PERICENTER": 151.6847, "MEAN_ANOMALY": 335.8707, "EPHEMERIS_TYPE": 0, "CLASSIFICATION_TYPE": "U", "NORAD_CAT_ID": 33775, "ELEMENT_SET_NO": 999, "REV_AT_EPOCH": 88154, "BSTAR": 0.00045297198, "MEAN_MOTION_DOT": 1.49e-05, "MEAN_MOTION_DDOT": 0}, "tle": {"line1": "1 33775U 97051N   25347.69526816  .00001490  00000+0  45297-3 0  9994", "line2": "2 33775  86.3637  49.1458 0014387 151.6847 335.8707 14.41471207881546"}}, "geometry": {"type": "Point", "coordinates": [-150.17564126156248, 78.97884620886474]}}, {"type": "Feature", "properties": {"norad_id": 33776, "name": "IRIDIUM 33 DEB", "group": "iridium-33-debris", "lat": -47.935756010685886, "lon": 76.11851413478415, "alt_km": 777.4138401523269, "timestamp": "2025-12-14T07:33:19.863061+00:00", "meta": {"OBJECT_NAME": "IRIDIUM 33 DEB", "OBJECT_ID": "1997-051P", "EPOCH": "2025-12-13T15:39:27.529344", "MEAN_MOTION": 14.38237164, "ECCENTRICITY": 0.00144453, "INCLINATION": 86.4038, "RA_OF_ASC_NODE": 80.3927, "ARG_OF_PERICENTER": 187.3853, "MEAN_ANOMALY": 296.9447, "EPHEMERIS_TYPE": 0, "CLASSIFICATION_TYPE": "U", "NORAD_CAT_ID": 33776, "ELEMENT_SET_NO": 999, "REV_AT_EPOCH": 88095, "BSTAR": 0.00040992864, "MEAN_MOTION_DOT": 1.266e-05, "MEAN_MOTION_DDOT": 0}, "tle": {"line1": "1 33776U 97051P   25347.65240196  .00001266  00000+0  40993-3 0  9994", "line2": "2 33776  86.4038  80.3927 0014445 187.3853 296.9447 14.38237164880959"}}, "geometry": {"type": "Point", "coordinates": [76.11851413478415, -47.935756010685886]}}, {"type": "Feature", "properties": {"norad_id": 33777, "name": "IRIDIUM 33 DEB", "group": "iridium-33-debris", "lat": -18.06818020057769, "lon": -144.29783999176163, "alt_km": 709.7780090062151, "timestamp": "2025-12-14T07:33:19.863074+00:00", "meta": {"OBJECT_NAME": "IRIDIUM 33 DEB", "OBJECT_ID": "1997-051Q", "EPOCH": "2025-12-13T15:47:59.127936", "MEAN_MOTION": 14.55625093, "ECCENTRICITY": 0.00052146, "INCLINATION": 86.3788, "RA_OF_ASC_NODE": 34.8038, "ARG_OF_PERICENTER": 244.6172, "MEAN_ANOMALY": 115.4496, "EPHEMERIS_TYPE": 0, "CLASSIFICATION_TYPE": "U", "NORAD_CAT_ID": 33777, "ELEMENT_SET_NO": 999, "REV_AT_EPOCH": 88547, "BSTAR": 0.0010882245, "MEAN_MOTION_DOT": 4.769e-05, "MEAN_MOTION_DDOT": 0}, "tle": {"line1": "1 33777U 97051Q   25347.65832324  .00004769  00000+0  10882-2 0  9999", "line2": "2 33777  86.3788  34.8038 0005214 244.6172 115.4496 14.55625093885475"}}, "geometry": {"type": "Point", "coordinates": [-144.29783999176163, -18.06818020057769]}}, {"type": "Feature", "properties": {"norad_id": 33850, "name": "IRIDIUM 33 DEB", "group": "iridium-33-debris", "lat": 83.8951427152044, "lon": 66.2419824647765, "alt_km": 741.0900143639146, "timestamp": "2025-12-14T07:33:19.863086+00:00", "meta": {"OBJECT_NAME": "IRIDIUM 33 DEB", "OBJECT_ID": "1997-051T", "EPOCH": "2025-12-13T15:03:41.991840", "MEAN_MOTION": 14.42148428, "ECCENTRICITY": 0.00123288, "INCLINATION": 86.3417, "RA_OF_ASC_NODE": 29.798, "ARG_OF_PERICENTER": 158.2918, "MEAN_ANOMALY": 321.2422, "EPHEMERIS_TYPE": 0, "CLASSIFICATION_TYPE": "U", "NORAD_CAT_ID": 33850, "ELEMENT_SET_NO": 999, "REV_AT_EPOCH": 88165, "BSTAR": 0.00041544855, "MEAN_MOTION_DOT": 1.387e-05, "MEAN_MOTION_DDOT": 0}, "tle": {"line1": "1 33850U 97051T   25347.62756935  .00001387  00000+0  41545-3 0  9995", "line2": "2 33850  86.3417  29.7980 0012328 158.2918 321.2422 14.42148428881657"}}, "geometry": {"type": "Point", "coordinates": [66.2419824647765, 83.8951427152044]}}, {"type": "Feature", "properties": {"norad_id": 33853, "name": "IRIDIUM 33 DEB", "group": "iridium-33-debris", "lat": -44.086337706272666, "lon": 173.00761104398583, "alt_km": 754.144088411219, "timestamp": "2025-12-14T07:33:19.863099+00:00", "meta": {"OBJECT_NAME": "IRIDIUM 33 DEB", "OBJECT_ID": "1997-051W", "EPOCH": "2025-12-13T12:11:23.722944", "MEAN_MOTION": 13.99070618, "ECCENTRICITY": 0.02069945, "INCLINATION": 85.9998, "RA_OF_ASC_NODE": 349.4749, "ARG_OF_PERICENTER": 233.4348, "MEAN_ANOMALY": 249.363, "EPHEMERIS_TYPE": 0, "CLASSIFICATION_TYPE": "U", "NORAD_CAT_ID": 33853, "ELEMENT_SET_NO": 999, "REV_AT_EPOCH": 85356, "BSTAR": 0.0028151646, "MEAN_MOTION_DOT": 4.91e-05, "MEAN_MOTION_DDOT": 0}, "tle": {"line1": "1 33853U 97051W   25347.50791346  .00004910  00000+0  28152-2 0  9993", "line2": "2 33853  85.9998 349.4749 0206994 233.4348 249.3630 13.99070618853567"}}, "geometry": {"type": "Point", "coordinates": [173.00761104398583, -44.086337706272666]}}, {"type": "Feature", "properties": {"norad_id": 33860, "name": "IRIDIUM 33 DEB", "group": "iridium-33-debris", "lat": 17.842850856572383, "lon": -154.62544576643612, "alt_km": 674.9826766304586, "timestamp": "2025-12-14T07:33:19.863111+00:00", "meta": {"OBJECT_NAME": "IRIDIUM 33 DEB", "OBJECT_ID": "1997-051AD", "EPOCH": "2025-12-13T15:00:21.453120", "MEAN_MOTION": 14.67386178, "ECCENTRICITY": 0.00073265, "INCLINATION": 86.3837, "RA_OF_ASC_NODE": 26.8461, "ARG_OF_PERICENTER": 354.8244, "MEAN_ANOMALY": 126.8398, "EPHEMERIS_TYPE": 0, "CLASSIFICATION_TYPE": "U", "NORAD_CAT_ID": 33860, "ELEMENT_SET_NO": 999, "REV_AT_EPOCH": 88735, "BSTAR": 0.0013684197, "MEAN_MOTION_DOT": 7.759e-05, "MEAN_MOTION_DDOT": 0}, "tle": {"line1": "1 33860U 97051AD  25347.62524830  .00007759  00000+0  13684-2 0  9994", "line2": "2 33860  86.3837  26.8461 0007326 354.8244 126.8398 14.67386178887351"}}, "geometry": {"type": "Point", "coordinates": [-154.62544576643612, 17.842850856572383]}}, {"type": "Feature", "properties": {"norad_id": 33862, "name": "IRIDIUM 33 DEB", "group": "iridium-33-debris", "lat": -29.633983453519484, "lon": -141.1170535035831, "alt_km": 699.6521606573997, "timestamp": "2025-12-14T07:33:19.863122+00:00", "meta": {"OBJECT_NAME": "IRIDIUM 33 DEB", "OBJECT_ID": "1997-051AF", "EPOCH": "2025-12-13T16:27:58.262400", "MEAN_MOTION": 14.69501586, "ECCENTRICITY": 0.00533566, "INCLINATION": 86.4091, "RA_OF_ASC_NODE": 37.1129, "ARG_OF_PERICENTER": 66.0072, "MEAN_ANOMALY": 59.323, "EPHEMERIS_TYPE": 0, "CLASSIFICATION_TYPE": "U", "NORAD_CAT_ID": 33862, "ELEMENT_SET_NO": 999, "REV_AT_EPOCH": 88837, "BSTAR": 0.0015966515, "MEAN_MOTION_DOT": 9.702e-05, "MEAN_MOTION_DDOT": 0}, "tle": {"line1": "1 33862U 97051AF  25347.68609100  .00009702  00000+0  15967-2 0  9992", "line2": "2 33862  86.4091  37.1129 0053356  66.0072  59.3230 14.69501586888379"}}, "geometry": {"type": "Point", "coordinates": [-141.1170535035831, -29.633983453519484]}}, {"type": "Feature", "properties": {"norad_id": 33866, "name": "IRIDIUM 33 DEB", "group": "iridium-33-debris", "lat": 23.04117161030867, "lon": 93.94623331630463, "alt_km": 862.9958360680075, "timestamp": "2025-12-14T07:33:19.863134+00:00", "meta": {"OBJECT_NAME": "IRIDIUM 33 DEB", "OBJECT_ID": "1997-051AK", "EPOCH": "2025-12-13T12:59:05.447328", "MEAN_MOTION": 14.25280553, "ECCENTRICITY": 0.01145356, "INCLINATION": 86.2997, "RA_OF_ASC_NODE": 92.6964, "ARG_OF_PERICENTER": 158.8581, "MEAN_ANOMALY": 217.5197, "EPHEMERIS_TYPE": 0, "CLASSIFICATION_TYPE": "U", "NORAD_CAT_ID": 33866, "ELEMENT_SET_NO": 999, "REV_AT_EPOCH": 86822, "BSTAR": 0.0010551308, "MEAN_MOTION_DOT": 2.677e-05, "MEAN_MOTION_DDOT": 0}, "tle": {"line1": "1 33866U 97051AK  25347.54103527  .00002677  00000+0  10551-2 0  9991", "line2": "2 33866  86.2997  92.6964 0114535 158.8581 217.5197 14.25280553868223"}}, "geometry": {"type": "Point", "coordinates": [93.94623331630463, 23.04117161030867]}}]}